*******************************************************************************
JPL/HORIZONS                126 Velleda (A872 VA)          2023-Sep-04 11:04:32
Rec #:     126 (+COV) Soln.date: 2023-Aug-21_20:01:34   # obs: 8624 (1872-2023)
 
IAU76/J2000 helio. ecliptic osc. elements (au, days, deg., period=Julian yrs):
 
  EPOCH=  2456636.5 ! 2013-Dec-10.00 (TDB)         Residual RMS= .32563
   EC= .1048457668842179   QR= 2.183335489464841   TP= 2456430.2862747572
   OM= 23.40816844918664   W=  327.8688300719659   IN= 2.923813527351128
   A= 2.439060676577777    MA= 53.3565493247979    ADIST= 2.694785863690714
   PER= 3.80927            N= .258743928           ANGMOM= .026717296
   DAN= 2.21554            DDN= 2.64729            L= 351.3106037
   B= -1.5545735           MOID= 1.17724001        TP= 2013-May-17.7862747572
 
Asteroid physical parameters (km, seconds, rotational period in hours):
   GM= n.a.                RAD= 22.41              ROTPER= 5.3672
   H= 9.3                  G= .150                 B-V= .865
                           ALBEDO= .1723           STYP= S

ASTEROID comments: 
1: soln ref.= JPL#120, OCC=0
2: source=ORB
*******************************************************************************


*******************************************************************************
Ephemeris / API_USER Mon Sep  4 11:04:32 2023 Pasadena, USA      / Horizons
*******************************************************************************
Target body name: 126 Velleda (A872 VA)           {source: JPL#120}
Center body name: Solar System Barycenter (0)     {source: DE441}
Center-site name: BODY CENTER
*******************************************************************************
Start time      : A.D. 2023-Aug-12 00:00:00.0000 TDB
Stop  time      : A.D. 2023-Aug-13 00:00:00.0000 TDB
Step-size       : 2880 minutes
*******************************************************************************
Center geodetic : 0.0, 0.0, 0.0                   {E-lon(deg),Lat(deg),Alt(km)}
Center cylindric: 0.0, 0.0, 0.0                   {E-lon(deg),Dxy(km),Dz(km)}
Center radii    : (undefined)
Small perturbers: Yes                             {source: SB441-N16}
Output units    : KM-S
Calendar mode   : Mixed Julian/Gregorian
Output type     : GEOMETRIC cartesian states
Output format   : 2 (position and velocity)
Reference frame : Ecliptic of J2000.0
*******************************************************************************
Initial IAU76/J2000 heliocentric ecliptic osculating elements (au, days, deg.):
  EPOCH=  2456636.5 ! 2013-Dec-10.00 (TDB)         Residual RMS= .32563        
   EC= .1048457668842179   QR= 2.183335489464841   TP= 2456430.2862747572      
   OM= 23.40816844918664   W=  327.8688300719659   IN= 2.923813527351128       
  Equivalent ICRF heliocentric cartesian coordinates (au, au/d):
   X= 1.321915851812469E+00  Y= 1.707406300814221E+00  Z= 8.074521326490132E-01
  VX=-8.894559297160870E-03 VY= 6.654455106636092E-03 VZ= 3.464063627556570E-03
Asteroid physical parameters (km, seconds, rotational period in hours):        
   GM= n.a.                RAD= 22.41              ROTPER= 5.3672              
   H= 9.3                  G= .150                 B-V= .865                   
                           ALBEDO= .1723           STYP= S                     
*******************************************************************************
JDTDB
   X     Y     Z
   VX    VY    VZ
*******************************************************************************
$$SOE
2460168.500000000 = A.D. 2023-Aug-12 00:00:00.0000 TDB 
 X =-2.586320945246034E+08 Y =-2.841334577126650E+08 Z =-8.101872179749459E+06
 VX= 1.451126439378229E+01 VY=-1.087206230340025E+01 VZ=-8.018100636553367E-01
$$EOE
*******************************************************************************
 
TIME

  Barycentric Dynamical Time ("TDB" or T_eph) output was requested. This
continuous coordinate time is equivalent to the relativistic proper time
of a clock at rest in a reference frame co-moving with the solar system
barycenter but outside the system's gravity well. It is the independent
variable in the solar system relativistic equations of motion.

  TDB runs at a uniform rate of one SI second per second and is independent
of irregularities in Earth's rotation.
 
CALENDAR SYSTEM

  Mixed calendar mode was active such that calendar dates after AD 1582-Oct-15
(if any) are in the modern Gregorian system. Dates prior to 1582-Oct-5 (if any)
are in the Julian calendar system, which is automatically extended for dates
prior to its adoption on 45-Jan-1 BC.  The Julian calendar is useful for
matching historical dates. The Gregorian calendar more accurately corresponds
to the Earth's orbital motion and seasons. A "Gregorian-only" calendar mode is
available if such physical events are the primary interest.

REFERENCE FRAME AND COORDINATES

  Ecliptic at the standard reference epoch

    Reference epoch: J2000.0
    X-Y plane: adopted Earth orbital plane at the reference epoch
               Note: IAU76 obliquity of 84381.448 arcseconds wrt ICRF X-Y plane
    X-axis   : ICRF
    Z-axis   : perpendicular to the X-Y plane in the directional (+ or -) sense
               of Earth's north pole at the reference epoch.

  Symbol meaning:

    JDTDB    Julian Day Number, Barycentric Dynamical Time
      X      X-component of position vector (km)
      Y      Y-component of position vector (km)
      Z      Z-component of position vector (km)
      VX     X-component of velocity vector (km/sec)                           
      VY     Y-component of velocity vector (km/sec)                           
      VZ     Z-component of velocity vector (km/sec)                           

ABERRATIONS AND CORRECTIONS

 Geometric state vectors have NO corrections or aberrations applied.

Computations by ...

    Solar System Dynamics Group, Horizons On-Line Ephemeris System
    4800 Oak Grove Drive, Jet Propulsion Laboratory
    Pasadena, CA  91109   USA

    General site: https://ssd.jpl.nasa.gov/
    Mailing list: https://ssd.jpl.nasa.gov/email_list.html
    System news : https://ssd.jpl.nasa.gov/horizons/news.html
    User Guide  : https://ssd.jpl.nasa.gov/horizons/manual.html
    Connect     : browser        https://ssd.jpl.nasa.gov/horizons/app.html#/x
                  API            https://ssd-api.jpl.nasa.gov/doc/horizons.html
                  command-line   telnet ssd.jpl.nasa.gov 6775
                  e-mail/batch   https://ssd.jpl.nasa.gov/ftp/ssd/hrzn_batch.txt
                  scripts        https://ssd.jpl.nasa.gov/ftp/ssd/SCRIPTS
    Author      : Jon.D.Giorgini@jpl.nasa.gov
*******************************************************************************
